HYPERFIELD-1A           
1 60562U 24149CY  26068.76488211  .00008569  00000+0  30052-3 0  9998
2 60562  97.3842 149.5066 0003865 313.7844  46.3076 15.29681349 86836
STARLINK-32424          
1 61548U 24184S   26068.16285319 -.00000640  00000+0 -94944-5 0  9996
2 61548  53.1610  16.5816 0001011  93.8363 266.2753 15.30191613 78426
